[{"OBJECT_NAME":"ONEWEB-0651","OBJECT_ID":"2023-043AL","EPOCH":"2026-03-09T22:35:56.177088","MEAN_MOTION":13.15547957,"ECCENTRICITY":0.0001341,"INCLINATION":87.8936,"RA_OF_ASC_NODE":279.0408,"ARG_OF_PERICENTER":84.5334,"MEAN_ANOMALY":275.5949,"EPHEMERIS_TYPE":0,"CLASSIFICATION_TYPE":"U","NORAD_CAT_ID":56080,"ELEMENT_SET_NO":999,"REV_AT_EPOCH":14457,"BSTAR":0.0002873304,"MEAN_MOTION_DOT":1.21e-6,"MEAN_MOTION_DDOT":0},{"OBJECT_NAME":"THORAD AGENA D DEB","OBJECT_ID":"1970-025BF","EPOCH":"2026-03-09T23:02:48.250752","MEAN_MOTION":13.24473571,"ECCENTRICITY":0.01435524,"INCLINATION":99.7429,"RA_OF_ASC_NODE":87.0906,"ARG_OF_PERICENTER":31.6821,"MEAN_ANOMALY":27.5243,"EPHEMERIS_TYPE":0,"CLASSIFICATION_TYPE":"U","NORAD_CAT_ID":4682,"ELEMENT_SET_NO":999,"REV_AT_EPOCH":69495,"BSTAR":0.0007013194,"MEAN_MOTION_DOT":2.78e-6,"MEAN_MOTION_DDOT":0}]
